[{"OBJECT_NAME":"IRIDE-MS2-HEO-1","OBJECT_ID":"2025-009CS","EPOCH":"2026-03-09T21:58:17.099616","MEAN_MOTION":14.93995138,"ECCENTRICITY":0.0002115,"INCLINATION":97.7093,"RA_OF_ASC_NODE":149.0685,"ARG_OF_PERICENTER":20.3987,"MEAN_ANOMALY":339.7317,"EPHEMERIS_TYPE":0,"CLASSIFICATION_TYPE":"U","NORAD_CAT_ID":62697,"ELEMENT_SET_NO":999,"REV_AT_EPOCH":6251,"BSTAR":0.00028163235,"MEAN_MOTION_DOT":2.946e-5,"MEAN_MOTION_DDOT":0},{"OBJECT_NAME":"SL-14 R\/B","OBJECT_ID":"1977-055B","EPOCH":"2026-03-09T12:09:50.153472","MEAN_MOTION":14.92006976,"ECCENTRICITY":0.00409775,"INCLINATION":75.8306,"RA_OF_ASC_NODE":90.7175,"ARG_OF_PERICENTER":356.0217,"MEAN_ANOMALY":4.0643,"EPHEMERIS_TYPE":0,"CLASSIFICATION_TYPE":"U","NORAD_CAT_ID":10096,"ELEMENT_SET_NO":999,"REV_AT_EPOCH":63654,"BSTAR":8.4112642e-5,"MEAN_MOTION_DOT":8.45e-6,"MEAN_MOTION_DDOT":0}]
